ORBCOMM FM24            
1 25478U 98053D   26013.19933301  .00000817  00000+0  30956-3 0  9993
2 25478  45.0095 352.8717 0003002 250.4163 109.6361 14.38751638427689
ORBCOMM FM25            
1 25479U 98053E   26012.96674810  .00000924  00000+0  34414-3 0  9997
2 25479  45.0086 352.2794 0005290 241.1405 118.8913 14.38720710427947
ORBCOMM FM26            
1 25480U 98053F   26013.19151637  .00000697  00000+0  27655-3 0  9998
2 25480  45.0083 349.2547 0007447 250.1647 109.8399 14.37677475427869
ORBCOMM FM27            
1 25481U 98053G   26013.08847943  .00000921  00000+0  34297-3 0  9999
2 25481  45.0070 351.8227 0002398 280.1569  79.9009 14.38758408427891
ORBCOMM FM28            
1 25482U 98053H   26013.10326630  .00000663  00000+0  25924-3 0  9998
2 25482  45.0059 289.0027 0005224 288.2733  71.7547 14.38874122428588
ORBCOMM FM30            
1 25980U 99065A   26013.15752442  .00000615  00000+0  24905-3 0  9999
2 25980  45.0298 175.4687 0005470 341.1262  18.9383 14.37835060364661
ORBCOMM FM31            
1 25981U 99065B   26013.14074306  .00000613  00000+0  24878-3 0  9992
2 25981  45.0212 168.9966 0002952  13.1408 346.9517 14.37760968364213
ORBCOMM FM32            
1 25982U 99065C   26012.83899000  .00000675  00000+0  27411-3 0  9998
2 25982  45.0138 188.4049 0005511   5.5604 354.5305 14.36821845364746
